{"type": "FeatureCollection", "features": [ {"type": "Feature", "properties": {"norad_id": 66387, "name": "STARLINK-35661", "group": "last-30-days", "lat": 50.87346331094035, "lon": 50.48143411723466, "alt_km": 439.65232521560574, "timestamp": "2025-12-05T16:54:13.484767+00:00", "meta": {"OBJECT_NAME": "STARLINK-35661", "OBJECT_ID": "2025-257H", "EPOCH": "2025-12-05T06:00:02.000160", "MEAN_MOTION": 15.39650653, "ECCENTRICITY": 8.911e-05, "INCLINATION": 53.1608, "RA_OF_ASC_NODE": 299.7878, "ARG_OF_PERICENTER": 85.2825, "MEAN_ANOMALY": 19.3613, "EPHEMERIS_TYPE": 0, "CLASSIFICATION_TYPE": "U", "NORAD_CAT_ID": 66387, "ELEMENT_SET_NO": 999, "REV_AT_EPOCH": 529, "BSTAR": 0.00067578591, "MEAN_MOTION_DOT": 0.00026753, "MEAN_MOTION_DDOT": 0}, "tle": {"line1": "1 66387U 25257H   25339.25002315  .00026753  00000+0  67579-3 0  9990", "line2": "2 66387  53.1608 299.7878 0000891  85.2825  19.3613 15.39650653  5295"}}, "geometry": {"type": "Point", "coordinates": [50.48143411723466, 50.87346331094035]}}, {"type": "Feature", "properties": {"norad_id": 66388, "name": "STARLINK-35647", "group": "last-30-days", "lat": 39.00594483605391, "lon": 80.20943956529455, "alt_km": 441.09890017708676, "timestamp": "2025-12-05T16:54:13.484776+00:00", "meta": {"OBJECT_NAME": "STARLINK-35647", "OBJECT_ID": "2025-257J", "EPOCH": "2025-12-05T06:00:02.000160", "MEAN_MOTION": 15.39531766, "ECCENTRICITY": 0.00016796, "INCLINATION": 53.1608, "RA_OF_ASC_NODE": 299.7392, "ARG_OF_PERICENTER": 109.0373, "MEAN_ANOMALY": 19.6739, "EPHEMERIS_TYPE": 0, "CLASSIFICATION_TYPE": "U", "NORAD_CAT_ID": 66388, "ELEMENT_SET_NO": 999, "REV_AT_EPOCH": 529, "BSTAR": 0.0020806505, "MEAN_MOTION_DOT": 0.00083498, "MEAN_MOTION_DDOT": 0}, "tle": {"line1": "1 66388U 25257J   25339.25002315  .00083498  00000+0  20807-2 0  9992", "line2": "2 66388  53.1608 299.7392 0001679 109.0373  19.6739 15.39531766  5290"}}, "geometry": {"type": "Point", "coordinates": [80.20943956529455, 39.00594483605391]}}, {"type": "Feature", "properties": {"norad_id": 66389, "name": "STARLINK-35694", "group": "last-30-days", "lat": 19.190561690666573, "lon": 102.4174530858767, "alt_km": 446.8097301176831, "timestamp": "2025-12-05T16:54:13.484785+00:00", "meta": {"OBJECT_NAME": "STARLINK-35694", "OBJECT_ID": "2025-257K", "EPOCH": "2025-12-05T06:00:02.000160", "MEAN_MOTION": 15.40841747, "ECCENTRICITY": 0.00013438, "INCLINATION": 53.1605, "RA_OF_ASC_NODE": 299.6854, "ARG_OF_PERICENTER": 52.8042, "MEAN_ANOMALY": 102.7935, "EPHEMERIS_TYPE": 0, "CLASSIFICATION_TYPE": "U", "NORAD_CAT_ID": 66389, "ELEMENT_SET_NO": 999, "REV_AT_EPOCH": 529, "BSTAR": -0.045871034, "MEAN_MOTION_DOT": -0.01729888, "MEAN_MOTION_DDOT": 0}, "tle": {"line1": "1 66389U 25257K   25339.25002315 -.01729888  00000+0 -45871-1 0  9993", "line2": "2 66389  53.1605 299.6854 0001343  52.8042 102.7935 15.40841747  5293"}}, "geometry": {"type": "Point", "coordinates": [102.4174530858767, 19.190561690666573]}}, {"type": "Feature", "properties": {"norad_id": 66390, "name": "STARLINK-35665", "group": "last-30-days", "lat": -39.9506375455744, "lon": 156.28712703739134, "alt_km": 423.34811546996843, "timestamp": "2025-12-05T16:54:13.484794+00:00", "meta": {"OBJECT_NAME": "STARLINK-35665", "OBJECT_ID": "2025-257L", "EPOCH": "2025-12-05T06:36:44.126208", "MEAN_MOTION": 15.49334501, "ECCENTRICITY": 0.00012, "INCLINATION": 53.1591, "RA_OF_ASC_NODE": 299.4348, "ARG_OF_PERICENTER": 91.9759, "MEAN_ANOMALY": 268.1387, "EPHEMERIS_TYPE": 0, "CLASSIFICATION_TYPE": "U", "NORAD_CAT_ID": 66390, "ELEMENT_SET_NO": 999, "REV_AT_EPOCH": 532, "BSTAR": 0.002256951, "MEAN_MOTION_DOT": 0.00127252, "MEAN_MOTION_DDOT": 0}, "tle": {"line1": "1 66390U 25257L   25339.27551072  .00127252  00000+0  22570-2 0  9992", "line2": "2 66390  53.1591 299.4348 0001200  91.9759 268.1387 15.49334501  5322"}}, "geometry": {"type": "Point", "coordinates": [156.28712703739134, -39.9506375455744]}}, {"type": "Feature", "properties": {"norad_id": 66391, "name": "STARLINK-35656", "group": "last-30-days", "lat": 18.65306227679781, "lon": 102.86735499670036, "alt_km": 441.40282274681886, "timestamp": "2025-12-05T16:54:13.484804+00:00", "meta": {"OBJECT_NAME": "STARLINK-35656", "OBJECT_ID": "2025-257M", "EPOCH": "2025-12-05T03:46:18.556608", "MEAN_MOTION": 15.40317588, "ECCENTRICITY": 9.833e-05, "INCLINATION": 53.1603, "RA_OF_ASC_NODE": 300.1096, "ARG_OF_PERICENTER": 171.4639, "MEAN_ANOMALY": 188.6383, "EPHEMERIS_TYPE": 0, "CLASSIFICATION_TYPE": "U", "NORAD_CAT_ID": 66391, "ELEMENT_SET_NO": 999, "REV_AT_EPOCH": 530, "BSTAR": 0.0098522303, "MEAN_MOTION_DOT": 0.00426205, "MEAN_MOTION_DDOT": 0}, "tle": {"line1": "1 66391U 25257M   25339.15715922  .00426205  00000+0  98522-2 0  9996", "line2": "2 66391  53.1603 300.1096 0000983 171.4639 188.6383 15.40317588  5302"}}, "geometry": {"type": "Point", "coordinates": [102.86735499670036, 18.65306227679781]}}, {"type": "Feature", "properties": {"norad_id": 66392, "name": "STARLINK-35671", "group": "last-30-days", "lat": 37.81482687946156, "lon": 82.01424932718248, "alt_km": 440.9051462247153, "timestamp": "2025-12-05T16:54:13.484813+00:00", "meta": {"OBJECT_NAME": "STARLINK-35671", "OBJECT_ID": "2025-257N", "EPOCH": "2025-12-05T06:00:02.000160", "MEAN_MOTION": 15.39528813, "ECCENTRICITY": 0.00022622, "INCLINATION": 53.1608, "RA_OF_ASC_NODE": 299.7349, "ARG_OF_PERICENTER": 108.3291, "MEAN_ANOMALY": 22.2237, "EPHEMERIS_TYPE": 0, "CLASSIFICATION_TYPE": "U", "NORAD_CAT_ID": 66392, "ELEMENT_SET_NO": 999, "REV_AT_EPOCH": 529, "BSTAR": 0.0023889068, "MEAN_MOTION_DOT": 0.0009608, "MEAN_MOTION_DDOT": 0}, "tle": {"line1": "1 66392U 25257N   25339.25002315  .00096080  00000+0  23889-2 0  9991", "line2": "2 66392  53.1608 299.7349 0002262 108.3291  22.2237 15.39528813  5299"}}, "geometry": {"type": "Point", "coordinates": [82.01424932718248, 37.81482687946156]}}, {"type": "Feature", "properties": {"norad_id": 66393, "name": "STARLINK-35652", "group": "last-30-days", "lat": 1.6631907573805917, "lon": 116.25116960449188, "alt_km": 441.5434523459253, "timestamp": "2025-12-05T16:54:13.484823+00:00", "meta": {"OBJECT_NAME": "STARLINK-35652", "OBJECT_ID": "2025-257P", "EPOCH": "2025-12-05T06:00:02.000160", "MEAN_MOTION": 15.43780646, "ECCENTRICITY": 0.00013141, "INCLINATION": 53.1594, "RA_OF_ASC_NODE": 299.65, "ARG_OF_PERICENTER": 84.7819, "MEAN_ANOMALY": 88.4295, "EPHEMERIS_TYPE": 0, "CLASSIFICATION_TYPE": "U", "NORAD_CAT_ID": 66393, "ELEMENT_SET_NO": 999, "REV_AT_EPOCH": 529, "BSTAR": -0.049518766, "MEAN_MOTION_DOT": -0.02026084, "MEAN_MOTION_DDOT": 0}, "tle": {"line1": "1 66393U 25257P   25339.25002315 -.02026084  00000+0 -49519-1 0  9990", "line2": "2 66393  53.1594 299.6500 0001314  84.7819  88.4295 15.43780646  5299"}}, "geometry": {"type": "Point", "coordinates": [116.25116960449188, 1.6631907573805917]}}, {"type": "Feature", "properties": {"norad_id": 66394, "name": "STARLINK-35672", "group": "last-30-days", "lat": -0.13353774234303556, "lon": 117.59295719933249, "alt_km": 442.5668660635847, "timestamp": "2025-12-05T16:54:13.484834+00:00", "meta": {"OBJECT_NAME": "STARLINK-35672", "OBJECT_ID": "2025-257Q", "EPOCH": "2025-12-05T06:00:02.000160", "MEAN_MOTION": 15.43520746, "ECCENTRICITY": 0.00014818, "INCLINATION": 53.1599, "RA_OF_ASC_NODE": 299.6434, "ARG_OF_PERICENTER": 86.7221, "MEAN_ANOMALY": 89.1592, "EPHEMERIS_TYPE": 0, "CLASSIFICATION_TYPE": "U", "NORAD_CAT_ID": 66394, "ELEMENT_SET_NO": 999, "REV_AT_EPOCH": 529, "BSTAR": -0.049977581, "MEAN_MOTION_DOT": -0.02026812, "MEAN_MOTION_DDOT": 0}, "tle": {"line1": "1 66394U 25257Q   25339.25002315 -.02026812  00000+0 -49978-1 0  9999", "line2": "2 66394  53.1599 299.6434 0001481  86.7221  89.1592 15.43520746  5296"}}, "geometry": {"type": "Point", "coordinates": [117.59295719933249, -0.13353774234303556]}}, {"type": "Feature", "properties": {"norad_id": 66395, "name": "STARLINK-35681", "group": "last-30-days", "lat": -17.14737883675942, "lon": 130.82551555325875, "alt_km": 425.9940608341258, "timestamp": "2025-12-05T16:54:13.484844+00:00", "meta": {"OBJECT_NAME": "STARLINK-35681", "OBJECT_ID": "2025-257R", "EPOCH": "2025-12-05T03:38:00.834720", "MEAN_MOTION": 15.47742281, "ECCENTRICITY": 0.00052248, "INCLINATION": 53.1595, "RA_OF_ASC_NODE": 300.0863, "ARG_OF_PERICENTER": 189.6371, "MEAN_ANOMALY": 170.4538, "EPHEMERIS_TYPE": 0, "CLASSIFICATION_TYPE": "U", "NORAD_CAT_ID": 66395, "ELEMENT_SET_NO": 999, "REV_AT_EPOCH": 513, "BSTAR": -0.020111944, "MEAN_MOTION_DOT": -0.00970243, "MEAN_MOTION_DDOT": 0}, "tle": {"line1": "1 66395U 25257R   25339.15139855 -.00970243  00000+0 -20112-1 0  9992", "line2": "2 66395  53.1595 300.0863 0005224 189.6371 170.4538 15.47742281  5135"}}, "geometry": {"type": "Point", "coordinates": [130.82551555325875, -17.14737883675942]}}, {"type": "Feature", "properties": {"norad_id": 66396, "name": "STARLINK-35669", "group": "last-30-days", "lat": -23.171189991274105, "lon": 136.14935580038218, "alt_km": 421.1677768929503, "timestamp": "2025-12-05T16:54:13.484866+00:00", "meta": {"OBJECT_NAME": "STARLINK-35669", "OBJECT_ID": "2025-257S", "EPOCH": "2025-12-04T09:02:39.769152", "MEAN_MOTION": 15.49365522, "ECCENTRICITY": 0.0001327, "INCLINATION": 53.1591, "RA_OF_ASC_NODE": 303.7835, "ARG_OF_PERICENTER": 104.0612, "MEAN_ANOMALY": 256.0545, "EPHEMERIS_TYPE": 0, "CLASSIFICATION_TYPE": "U", "NORAD_CAT_ID": 66396, "ELEMENT_SET_NO": 999, "REV_AT_EPOCH": 508, "BSTAR": 0.0021205, "MEAN_MOTION_DOT": 0.00119543, "MEAN_MOTION_DDOT": 0}, "tle": {"line1": "1 66396U 25257S   25338.37684918  .00119543  00000+0  21205-2 0  9992", "line2": "2 66396  53.1591 303.7835 0001327 104.0612 256.0545 15.49365522  5084"}}, "geometry": {"type": "Point", "coordinates": [136.14935580038218, -23.171189991274105]}}]}